[{"OBJECT_NAME":"STARLINK-4485","OBJECT_ID":"2022-101Q","EPOCH":"2026-03-09T23:34:01.580736","MEAN_MOTION":15.0883791,"ECCENTRICITY":0.00012558,"INCLINATION":53.2172,"RA_OF_ASC_NODE":72.8109,"ARG_OF_PERICENTER":91.2812,"MEAN_ANOMALY":268.8324,"EPHEMERIS_TYPE":0,"CLASSIFICATION_TYPE":"U","NORAD_CAT_ID":53541,"ELEMENT_SET_NO":999,"REV_AT_EPOCH":19690,"BSTAR":6.6703454e-5,"MEAN_MOTION_DOT":7.74e-6,"MEAN_MOTION_DDOT":0},{"OBJECT_NAME":"CZ-6A R\/B","OBJECT_ID":"2022-031C","EPOCH":"2026-03-09T19:50:55.360896","MEAN_MOTION":15.07476837,"ECCENTRICITY":0.00174842,"INCLINATION":97.8104,"RA_OF_ASC_NODE":273.2347,"ARG_OF_PERICENTER":181.6412,"MEAN_ANOMALY":178.4761,"EPHEMERIS_TYPE":0,"CLASSIFICATION_TYPE":"U","NORAD_CAT_ID":52152,"ELEMENT_SET_NO":999,"REV_AT_EPOCH":21633,"BSTAR":0.00020233161,"MEAN_MOTION_DOT":3.012e-5,"MEAN_MOTION_DDOT":0}]
